GLOBALSTAR M063         
1 26081U 00008A   25360.30763106 -.00000053  00000+0  42738-3 0  9992
2 26081  51.9981 325.5920 0004752 326.8362 184.0517 11.86178577180372
GLOBALSTAR M062         
1 26082U 00008B   25360.41963565 -.00000075  00000+0  16647-3 0  9990
2 26082  51.9843 250.4796 0007034 154.6112  16.4856 12.43478882520539
GLOBALSTAR M060         
1 26083U 00008C   25360.08702667 -.00000012  00000+0  78817-3 0  9996
2 26083  52.0008 238.6168 0003471 135.7495  30.7747 12.17671842175740
GLOBALSTAR M064         
1 26084U 00008D   25360.47868921 -.00000058  00000+0  36038-3 0  9995
2 26084  52.0046  61.7027 0001772  86.6885 273.4150 11.88539676189969
GLOBALSTAR M065         
1 31571U 07020A   25351.59775860 -.00000114  00000+0 -59491-4 0  9998
2 31571  51.9915  28.0181 0009699 356.5964 173.4742 12.62015524856566
GLOBALSTAR M069         
1 31573U 07020C   25360.50806036 -.00000082  00000+0  96576-4 0  9999
2 31573  52.0049  20.8743 0002029 149.8631  16.1979 12.23465262857668
GLOBALSTAR M072         
1 31574U 07020D   25360.28648413 -.00000080  00000+0  51893-4 0  9999
2 31574  51.9897 200.5552 0001419  31.7537 140.7875 11.91654777854367
GLOBALSTAR M071         
1 31576U 07020F   25360.54704238 -.00000064  00000+0  26429-3 0  9996
2 31576  52.0074  51.8047 0001320 137.0883  11.4378 12.18263438518380
